NUSAT-50 (NANCY ROMAN)  
1 60493U 24149AB  26068.80227738  .00012094  00000+0  42252-3 0  9994
2 60493  97.3817 150.7693 0002523 238.0469 122.0527 15.29713355 86930
STARLINK-34192          
1 64014U 25101W   26068.18424442  .00024880  00000+0  91102-3 0  9992
2 64014  42.9995   1.1861 0000882 275.0953  84.9798 15.27565149 46977
